GALAXY 16 (G-16)        
1 29236U 06023A   26162.67488684 -.00000110  00000+0  00000+0 0  9992
2 29236   0.0459 150.6084 0002432 295.7384 317.6323  1.00270854 72916
EUTELSAT 33F            
1 29270U 06032A   26161.56037131  .00000173  00000+0  00000+0 0  9992
2 29270   1.6435  82.3155 0003296 353.8267  57.6610  1.00275481 47249
JCSAT-3A                
1 29272U 06033A   26162.65480654 -.00000328  00000+0  00000+0 0  9991
2 29272   0.0088 316.7865 0001943 129.0942 177.8491  1.00272061 47681
KOREASAT 5 (MUGUNGWHA 5)
1 29349U 06034A   26162.71686980 -.00000342  00000+0  00000+0 0  9990
2 29349   1.7704  83.0460 0001429  50.5957 137.5471  1.00269740 41266
DIRECTV 9S              
1 29494U 06043A   26162.67445352 -.00000098  00000+0  00000+0 0  9990
2 29494   2.4058  80.9664 0004900   9.6032 311.0637  1.00270989 51323
OPTUS D1                
1 29495U 06043B   26162.65322007 -.00000168  00000+0  00000+0 0  9998
2 29495   3.0199  79.7209 0003426 356.3212 211.1084  1.00270533 72067
BADR-4                  
1 29526U 06051A   26155.74309133  .00000167  00000+0  00000+0 0  9997
2 29526   1.9707  81.2738 0007892 161.5231 306.4291  1.00450212 51145
WILDBLUE-1              
1 29643U 06054A   26162.43215295 -.00000033  00000+0  00000+0 0  9992
2 29643   2.7874  80.5521 0001347   7.3508 216.2536  1.00272139 53731
SKYNET 5A               
1 30794U 07007B   26162.14298608 -.00000257  00000+0  00000+0 0  9995
2 30794   5.2861  73.8139 0004002  12.2203 320.1530  1.00271345 70637
ANIK F3                 
1 31102U 07009A   26162.67098683  .00000015  00000+0  00000+0 0  9991
2 31102   1.1824  83.9126 0002484   0.8151 298.1031  1.00271223 46504
ASTRA 1L                
1 31306U 07016A   26162.68962023 -.00000168  00000+0  00000+0 0  9994
2 31306   1.3068  81.6151 0005173   7.5198  34.6783  1.00272222 44930
GALAXY 17 (G-17)        
1 31307U 07016B   26162.60635396 -.00000191  00000+0  00000+0 0  9993
2 31307   2.9574  79.9686 0004775  19.4204 293.8533  1.00270447 69745
INTELSAT 11 (IS-11)     
1 32253U 07044B   26162.65287340 -.00000268  00000+0  00000+0 0  9997
2 32253   3.5503  78.7348 0002072  88.5033 117.9596  0.99053035 68396
WGS F1 (USA 195)        
1 32258U 07046A   26162.11573375 -.00000250  00000+0  00000+0 0  9992
2 32258   0.0468  95.4661 0000350  58.1857 105.0027  1.00271347 52279
SKYNET 5B               
1 32294U 07056B   26161.98651700  .00000155  00000+0  00000+0 0  9999
2 32294   5.2373  73.5797 0004038 359.0105 206.9650  1.00271862 68131
ASTRA 4A                
1 32299U 07057A   26162.26765047  .00000049  00000+0  00000+0 0  9999
2 32299   0.0146 327.1472 0002208 115.7145 277.9120  1.00270303 51583
HORIZONS-2              
1 32388U 07063B   26162.53727065 -.00000238  00000+0  00000+0 0  9994
2 32388   2.5868  80.6926 0003816 358.2929 300.5423  1.00270448 67750
THURAYA-3               
1 32404U 08001A   26162.71054310 -.00000085  00000+0  00000+0 0  9992
2 32404   5.9797  35.7874 0001451 158.4591  42.8196  1.00007860 67432
THOR 5                  
1 32487U 08006A   26162.33782206  .00000008  00000+0  00000+0 0  9992
2 32487   0.0329 258.2615 0002375 188.1043 294.1879  1.00270319 67254
AMC-14                  
1 32708U 08011A   26162.14747505 -.00000031  00000+0  00000+0 0  9993
2 32708  23.9982  20.5930 0046355   6.5562 349.2601  1.00354189 68102
DIRECTV 11              
1 32729U 08013A   26162.53224396 -.00000109  00000+0  00000+0 0  9995
2 32729   0.0110 241.9335 0000374 148.9362 321.4389  1.00272580 45533
ICO G1                  
1 32763U 08016A   26162.34280657 -.00000159  00000+0  00000+0 0  9992
2 32763   5.5329  36.1650 0002300  29.5225 224.5466  1.00272317 66484
VINASAT-1               
1 32767U 08018A   26162.50667719 -.00000311  00000+0  00000+0 0  9994
2 32767   0.0216 304.8378 0001081 146.9477 122.4179  1.00269896 66534
STAR ONE C2             
1 32768U 08018B   26162.53900398 -.00000260  00000+0  00000+0 0  9994
2 32768   1.2259  82.5100 0002544   4.7254 301.7056  1.00271182 66590
AMOS-3                  
1 32794U 08022A   26162.70137808  .00000168  00000+0  00000+0 0  9991
2 32794   0.4405  86.3095 0001976  69.6164  31.4949  1.00472781 82286
GALAXY 18 (G-18)        
1 32951U 08024A   26162.67012015  .00000042  00000+0  00000+0 0  9997
2 32951   0.0007   0.4303 0002606  78.7540 299.0673  1.00270179 45792
ZHONGXING-9             
1 33051U 08028A   26162.75597788 -.00000233  00000+0  00000+0 0  9990
2 33051   0.7535  85.4444 0004281 334.7691 204.4363  1.00271789 65986
SKYNET 5C               
1 33055U 08030A   26162.15044802 -.00000124  00000+0  00000+0 0  9994
2 33055   3.7727  77.1098 0004005  13.3669 205.3856  1.00269836 65895
TURKSAT 3A              
1 33056U 08030B   26162.63149110  .00000163  00000+0  00000+0 0  9998
2 33056   0.0431  77.5670 0005031 352.3633  99.3874  1.00273935 52303
INTELSAT 25 (IS-25)     
1 33153U 08034A   26162.72737116 -.00000269  00000+0  00000+0 0  9997
2 33153   2.6949  80.4340 0003032  55.7917 171.6349  0.99037401 65632
ECHOSTAR 11             
1 33207U 08035A   26162.60141394 -.00000042  00000+0  00000+0 0  9991
2 33207   0.9899  84.2380 0002172 345.4325 296.9888  1.00271440 51156
SUPERBIRD-C2            
1 33274U 08038A   26162.72137648 -.00000291  00000+0  00000+0 0  9994
2 33274   2.3462  81.3286 0005948  25.3952 189.0216  1.00269683105679
