OBJECT_NAME,OBJECT_ID,EPOCH,MEAN_MOTION,ECCENTRICITY,INCLINATION,RA_OF_ASC_NODE,ARG_OF_PERICENTER,MEAN_ANOMALY,EPHEMERIS_TYPE,CLASSIFICATION_TYPE,NORAD_CAT_ID,ELEMENT_SET_NO,REV_AT_EPOCH,BSTAR,MEAN_MOTION_DOT,MEAN_MOTION_DDOT
GALAXY 16 (G-16),2006-023A,2026-06-11T16:11:50.222976,1.00270854,.0002432,0.0459,150.6084,295.7384,317.6323,0,U,29236,999,7291,0,-.11E-5,0
EUTELSAT 33F,2006-032A,2026-06-10T13:26:56.081184,1.00275481,.00032964,1.6435,82.3155,353.8267,57.6610,0,U,29270,999,4724,0,.173E-5,0
JCSAT-3A,2006-033A,2026-06-11T15:42:55.285056,1.00272061,.00019437,0.0088,316.7865,129.0942,177.8491,0,U,29272,999,4768,0,-.328E-5,0
KOREASAT 5 (MUGUNGWHA 5),2006-034A,2026-06-11T17:12:17.550720,1.00269740,.0001429,1.7704,83.0460,50.5957,137.5471,0,U,29349,999,4126,0,-.342E-5,0
DIRECTV 9S,2006-043A,2026-06-11T16:11:12.784128,1.00270989,.00049,2.4058,80.9664,9.6032,311.0637,0,U,29494,999,5132,0,-.98E-6,0
OPTUS D1,2006-043B,2026-06-11T15:40:38.214048,1.00270533,.0003426,3.0199,79.7209,356.3212,211.1084,0,U,29495,999,7206,0,-.168E-5,0
BADR-4,2006-051A,2026-06-04T17:50:03.090912,1.00450212,.00078927,1.9707,81.2738,161.5231,306.4291,0,U,29526,999,5114,0,.167E-5,0
WILDBLUE-1,2006-054A,2026-06-11T10:22:18.014880,1.00272139,.0001347,2.7874,80.5521,7.3508,216.2536,0,U,29643,999,5373,0,-.33E-6,0
SKYNET 5A,2007-007B,2026-06-11T03:25:53.997312,1.00271345,.00040028,5.2861,73.8139,12.2203,320.1530,0,U,30794,999,7063,0,-.257E-5,0
ANIK F3,2007-009A,2026-06-11T16:06:13.262112,1.00271223,.0002484,1.1824,83.9126,0.8151,298.1031,0,U,31102,999,4650,0,.15E-6,0
ASTRA 1L,2007-016A,2026-06-11T16:33:03.187872,1.00272222,.0005173,1.3068,81.6151,7.5198,34.6783,0,U,31306,999,4493,0,-.168E-5,0
GALAXY 17 (G-17),2007-016B,2026-06-11T14:33:08.982144,1.00270447,.0004775,2.9574,79.9686,19.4204,293.8533,0,U,31307,999,6974,0,-.191E-5,0
INTELSAT 11 (IS-11),2007-044B,2026-06-11T15:40:08.261760,0.99053035,.0002072,3.5503,78.7348,88.5033,117.9596,0,U,32253,999,6839,0,-.268E-5,0
WGS F1 (USA 195),2007-046A,2026-06-11T02:46:39.396000,1.00271347,.00003501,0.0468,95.4661,58.1857,105.0027,0,U,32258,999,5227,0,-.25E-5,0
SKYNET 5B,2007-056B,2026-06-10T23:40:35.068800,1.00271862,.00040389,5.2373,73.5797,359.0105,206.9650,0,U,32294,999,6813,0,.155E-5,0
ASTRA 4A,2007-057A,2026-06-11T06:25:25.000608,1.00270303,.00022089,0.0146,327.1472,115.7145,277.9120,0,U,32299,999,5158,0,.49E-6,0
HORIZONS-2,2007-063B,2026-06-11T12:53:40.184160,1.00270448,.0003816,2.5868,80.6926,358.2929,300.5423,0,U,32388,999,6775,0,-.238E-5,0
THURAYA-3,2008-001A,2026-06-11T17:03:10.923840,1.00007860,.0001451,5.9797,35.7874,158.4591,42.8196,0,U,32404,999,6743,0,-.85E-6,0
THOR 5,2008-006A,2026-06-11T08:06:27.825984,1.00270319,.00023752,0.0329,258.2615,188.1043,294.1879,0,U,32487,999,6725,0,.8E-7,0
AMC-14,2008-011A,2026-06-11T03:32:21.844320,1.00354189,.0046355,23.9982,20.5930,6.5562,349.2601,0,U,32708,999,6810,0,-.31E-6,0
DIRECTV 11,2008-013A,2026-06-11T12:46:25.878144,1.00272580,.0000374,0.0110,241.9335,148.9362,321.4389,0,U,32729,999,4553,0,-.109E-5,0
ICO G1,2008-016A,2026-06-11T08:13:38.487648,1.00272317,.00023,5.5329,36.1650,29.5225,224.5466,0,U,32763,999,6648,0,-.159E-5,0
VINASAT-1,2008-018A,2026-06-11T12:09:36.909216,1.00269896,.00010815,0.0216,304.8378,146.9477,122.4179,0,U,32767,999,6653,0,-.311E-5,0
STAR ONE C2,2008-018B,2026-06-11T12:56:09.943872,1.00271182,.0002544,1.2259,82.5100,4.7254,301.7056,0,U,32768,999,6659,0,-.26E-5,0
AMOS-3,2008-022A,2026-06-11T16:49:59.066112,1.00472781,.0001976,0.4405,86.3095,69.6164,31.4949,0,U,32794,999,8228,0,.168E-5,0
GALAXY 18 (G-18),2008-024A,2026-06-11T16:04:58.380960,1.00270179,.0002606,0.0007,0.4303,78.7540,299.0673,0,U,32951,999,4579,0,.42E-6,0
ZHONGXING-9,2008-028A,2026-06-11T18:08:36.488832,1.00271789,.0004281,0.7535,85.4444,334.7691,204.4363,0,U,33051,999,6598,0,-.233E-5,0
SKYNET 5C,2008-030A,2026-06-11T03:36:38.708928,1.00269836,.0004005,3.7727,77.1098,13.3669,205.3856,0,U,33055,999,6589,0,-.124E-5,0
TURKSAT 3A,2008-030B,2026-06-11T15:09:20.831040,1.00273935,.0005031,0.0431,77.5670,352.3633,99.3874,0,U,33056,999,5230,0,.163E-5,0
INTELSAT 25 (IS-25),2008-034A,2026-06-11T17:27:24.868224,0.99037401,.0003032,2.6949,80.4340,55.7917,171.6349,0,U,33153,999,6563,0,-.269E-5,0
ECHOSTAR 11,2008-035A,2026-06-11T14:26:02.164416,1.00271440,.0002172,0.9899,84.2380,345.4325,296.9888,0,U,33207,999,5115,0,-.42E-6,0
SUPERBIRD-C2,2008-038A,2026-06-11T17:18:46.927872,1.00269683,.0005948,2.3462,81.3286,25.3952,189.0216,0,U,33274,999,10567,0,-.291E-5,0
